{
  "norad_id": 62279,
  "name": "STARLINK-11499 [DTC]",
  "history": [
    {
      "epoch": "2026-03-28T22:43:24.083328Z",
      "apogee_km": 359.4702317536039,
      "perigee_km": 352.31061379770927,
      "latitude_deg": -9.457464795219337e-06,
      "longitude_deg": 133.97539168143362,
      "height_km": 355.4038168462248,
      "semi_major_axis_km": 6734.027422775656,
      "eccentricity": 0.0005316,
      "inclination_deg": 43.0031,
      "raan_deg": 301.1857,
      "arg_perigee_deg": 274.1914,
      "mean_anomaly_deg": 85.8346,
      "mean_motion_rev_day": 15.7105157
    },
    {
      "epoch": "2026-03-30T00:39:55.457280Z",
      "apogee_km": 357.9654482371625,
      "perigee_km": 354.18391900834104,
      "latitude_deg": 4.3922966065745e-06,
      "longitude_deg": 97.26158010104463,
      "height_km": 355.83480360496986,
      "semi_major_axis_km": 6734.2116836227515,
      "eccentricity": 0.00028077,
      "inclination_deg": 43.0016,
      "raan_deg": 294.668,
      "arg_perigee_deg": 270.4101,
      "mean_anomaly_deg": 89.6445,
      "mean_motion_rev_day": 15.7098709
    },
    {
      "epoch": "2026-03-30T14:23:58.259040Z",
      "apogee_km": 356.8706749583016,
      "perigee_km": 355.7282451572164,
      "latitude_deg": 5.180571961342587e-05,
      "longitude_deg": -112.76568259430913,
      "height_km": 356.3439102567,
      "semi_major_axis_km": 6734.436460057758,
      "eccentricity": 8.482e-05,
      "inclination_deg": 42.9974,
      "raan_deg": 291.2164,
      "arg_perigee_deg": 241.4584,
      "mean_anomaly_deg": 118.6199,
      "mean_motion_rev_day": 15.70908438
    },
    {
      "epoch": "2026-03-30T22:01:46.055424Z",
      "apogee_km": 357.893512960326,
      "perigee_km": 354.6807885749604,
      "latitude_deg": 1.9138339906969625e-05,
      "longitude_deg": 130.55748069058183,
      "height_km": 356.2725854524513,
      "semi_major_axis_km": 6734.4241507676425,
      "eccentricity": 0.00023853,
      "inclination_deg": 43.0002,
      "raan_deg": 289.3021,
      "arg_perigee_deg": 262.4067,
      "mean_anomaly_deg": 97.653,
      "mean_motion_rev_day": 15.70912745
    },
    {
      "epoch": "2026-03-31T13:17:21.815808Z",
      "apogee_km": 357.5263770470392,
      "perigee_km": 355.07019380973816,
      "latitude_deg": 2.521254400030438e-05,
      "longitude_deg": -102.801916755806,
      "height_km": 356.0552845579948,
      "semi_major_axis_km": 6734.435285428389,
      "eccentricity": 0.00018236,
      "inclination_deg": 42.9984,
      "raan_deg": 285.4684,
      "arg_perigee_deg": 270.7278,
      "mean_anomaly_deg": 89.3381,
      "mean_motion_rev_day": 15.70908849
    },
    {
      "epoch": "2026-04-01T12:10:45.450336Z",
      "apogee_km": 357.0622988654959,
      "perigee_km": 355.0595484030073,
      "latitude_deg": -2.048548701846896e-06,
      "longitude_deg": -92.84007650211578,
      "height_km": 356.49566634529106,
      "semi_major_axis_km": 6734.197923634251,
      "eccentricity": 0.0001487,
      "inclination_deg": 42.9984,
      "raan_deg": 279.7188,
      "arg_perigee_deg": 228.5534,
      "mean_anomaly_deg": 131.5206,
      "mean_motion_rev_day": 15.70991905
    },
    {
      "epoch": "2026-04-02T12:35:42.088416Z",
      "apogee_km": 357.7563768761047,
      "perigee_km": 354.6286848687869,
      "latitude_deg": 3.4222662453713276e-05,
      "longitude_deg": -106.21064736577046,
      "height_km": 356.19756006719854,
      "semi_major_axis_km": 6734.3295308724455,
      "eccentricity": 0.00023222,
      "inclination_deg": 42.9993,
      "raan_deg": 273.5869,
      "arg_perigee_deg": 261.4679,
      "mean_anomaly_deg": 98.5926,
      "mean_motion_rev_day": 15.70945853
    }
  ]
}